STARLINK-2022           
1 47643U 21012Z   24060.51517788  .00005990  00000+0  42072-3 0  9994
2 47643  53.0520 129.9029 0001490  87.3112 272.8048 15.06397940168852
